{
  "type": "FeatureCollection",
  "features": [
    {
      "type": "Feature",
      "properties": {
        "norad_id": 44204,
        "name": "BEIDOU-3 IGSO-1 (C38)",
        "group": "gnss",
        "lat": -57.81559429771427,
        "lon": -63.129805833053716,
        "alt_km": 35714.84090072856,
        "timestamp": "2025-12-15T07:02:37.861986+00:00",
        "meta_object_name": "BEIDOU-3 IGSO-1 (C38)",
        "meta_object_id": "2019-023A",
        "meta_epoch": "2025-11-19T14:15:02.708640",
        "meta_mean_motion": 1.00252177,
        "meta_eccentricity": 0.0026966,
        "meta_inclination": 58.4003,
        "meta_ra_of_asc_node": 39.8168,
        "meta_arg_of_pericenter": 221.2202,
        "meta_mean_anomaly": 126.9723,
        "meta_ephemeris_type": 0,
        "meta_classification_type": "U",
        "meta_norad_cat_id": 44204,
        "meta_element_set_no": 999,
        "meta_rev_at_epoch": 510,
        "meta_bstar": 0,
        "meta_mean_motion_dot": -2.26e-06,
        "meta_mean_motion_ddot": 0,
        "tle_line1": "1 44204U 19023A   25323.59378135 -.00000226  00000+0  00000+0 0  9994",
        "tle_line2": "2 44204  58.4003  39.8168 0026966 221.2202 126.9723  1.00252177  5102"
      },
      "geometry": {
        "type": "Point",
        "coordinates": [
          -63.129805833053716,
          -57.81559429771427
        ]
      }
    },
    {
      "type": "Feature",
      "properties": {
        "norad_id": 44231,
        "name": "BEIDOU-2 G8 (C01)",
        "group": "gnss",
        "lat": -1.6424686104485324,
        "lon": -25.69036377295744,
        "alt_km": 35750.76776810008,
        "timestamp": "2025-12-15T07:02:37.862006+00:00",
        "meta_object_name": "BEIDOU-2 G8 (C01)",
        "meta_object_id": "2019-027A",
        "meta_epoch": "2025-12-14T22:39:45.580320",
        "meta_mean_motion": 1.00267531,
        "meta_eccentricity": 0.00087597,
        "meta_inclination": 1.6677,
        "meta_ra_of_asc_node": 74.714,
        "meta_arg_of_pericenter": 257.4473,
        "meta_mean_anomaly": 236.1,
        "meta_ephemeris_type": 0,
        "meta_classification_type": "U",
        "meta_norad_cat_id": 44231,
        "meta_element_set_no": 999,
        "meta_rev_at_epoch": 2423,
        "meta_bstar": 0,
        "meta_mean_motion_dot": -2.29e-06,
        "meta_mean_motion_ddot": 0,
        "tle_line1": "1 44231U 19027A   25348.94427755 -.00000229  00000+0  00000+0 0  9990",
        "tle_line2": "2 44231   1.6677  74.7140 0008759 257.4473 236.1000  1.00267531 24235"
      },
      "geometry": {
        "type": "Point",
        "coordinates": [
          -25.69036377295744,
          -1.6424686104485324
        ]
      }
    },
    {
      "type": "Feature",
      "properties": {
        "norad_id": 44299,
        "name": "COSMOS 2534 (758)",
        "group": "gnss",
        "lat": -1.5446666520880235,
        "lon": 19.551805888525077,
        "alt_km": 19135.25239366962,
        "timestamp": "2025-12-15T07:02:37.862020+00:00",
        "meta_object_name": "COSMOS 2534 (758)",
        "meta_object_id": "2019-030A",
        "meta_epoch": "2025-12-10T14:34:24.563136",
        "meta_mean_motion": 2.13102261,
        "meta_eccentricity": 0.0008999,
        "meta_inclination": 64.3653,
        "meta_ra_of_asc_node": 198.9649,
        "meta_arg_of_pericenter": 283.4628,
        "meta_mean_anomaly": 263.2195,
        "meta_ephemeris_type": 0,
        "meta_classification_type": "U",
        "meta_norad_cat_id": 44299,
        "meta_element_set_no": 999,
        "meta_rev_at_epoch": 5090,
        "meta_bstar": 0,
        "meta_mean_motion_dot": 4.7e-07,
        "meta_mean_motion_ddot": 0,
        "tle_line1": "1 44299U 19030A   25344.60722874  .00000047  00000+0  00000+0 0  9994",
        "tle_line2": "2 44299  64.3653 198.9649 0008999 283.4628 263.2195  2.13102261 50901"
      },
      "geometry": {
        "type": "Point",
        "coordinates": [
          19.551805888525077,
          -1.5446666520880235
        ]
      }
    },
    {
      "type": "Feature",
      "properties": {
        "norad_id": 44337,
        "name": "BEIDOU-3 IGSO-2 (C39)",
        "group": "gnss",
        "lat": 25.35796923682762,
        "lon": -38.78757454431913,
        "alt_km": 35690.726616324006,
        "timestamp": "2025-12-15T07:02:37.862032+00:00",
        "meta_object_name": "BEIDOU-3 IGSO-2 (C39)",
        "meta_object_id": "2019-035A",
        "meta_epoch": "2025-12-13T21:01:33.834720",
        "meta_mean_motion": 1.00271067,
        "meta_eccentricity": 0.00372664,
        "meta_inclination": 55.226,
        "meta_ra_of_asc_node": 160.4907,
        "meta_arg_of_pericenter": 202.3075,
        "meta_mean_anomaly": 154.8952,
        "meta_ephemeris_type": 0,
        "meta_classification_type": "U",
        "meta_norad_cat_id": 44337,
        "meta_element_set_no": 999,
        "meta_rev_at_epoch": 2380,
        "meta_bstar": 0,
        "meta_mean_motion_dot": -3.9e-07,
        "meta_mean_motion_ddot": 0,
        "tle_line1": "1 44337U 19035A   25347.87608605 -.00000039  00000+0  00000+0 0  9991",
        "tle_line2": "2 44337  55.2260 160.4907 0037266 202.3075 154.8952  1.00271067 23804"
      },
      "geometry": {
        "type": "Point",
        "coordinates": [
          -38.78757454431913,
          25.35796923682762
        ]
      }
    },
    {
      "type": "Feature",
      "properties": {
        "norad_id": 44506,
        "name": "GPS BIII-2  (PRN 18)",
        "group": "gnss",
        "lat": 55.209048018535924,
        "lon": 57.45147816057163,
        "alt_km": 20239.039892629346,
        "timestamp": "2025-12-15T07:02:37.862044+00:00",
        "meta_object_name": "GPS BIII-2  (PRN 18)",
        "meta_object_id": "2019-056A",
        "meta_epoch": "2025-12-14T10:00:28.721376",
        "meta_mean_motion": 2.00566469,
        "meta_eccentricity": 0.00577186,
        "meta_inclination": 55.7208,
        "meta_ra_of_asc_node": 338.4855,
        "meta_arg_of_pericenter": 198.4901,
        "meta_mean_anomaly": 332.9722,
        "meta_ephemeris_type": 0,
        "meta_classification_type": "U",
        "meta_norad_cat_id": 44506,
        "meta_element_set_no": 999,
        "meta_rev_at_epoch": 4636,
        "meta_bstar": 0,
        "meta_mean_motion_dot": -8.9e-07,
        "meta_mean_motion_ddot": 0,
        "tle_line1": "1 44506U 19056A   25348.41699909 -.00000089  00000+0  00000+0 0  9995",
        "tle_line2": "2 44506  55.7208 338.4855 0057718 198.4901 332.9722  2.00566469 46369"
      },
      "geometry": {
        "type": "Point",
        "coordinates": [
          57.45147816057163,
          55.209048018535924
        ]
      }
    },
    {
      "type": "Feature",
      "properties": {
        "norad_id": 44542,
        "name": "BEIDOU-3 M24 (C46)",
        "group": "gnss",
        "lat": 22.348687697655016,
        "lon": -8.196513058753572,
        "alt_km": 21541.85268558014,
        "timestamp": "2025-12-15T07:02:37.862056+00:00",
        "meta_object_name": "BEIDOU-3 M24 (C46)",
        "meta_object_id": "2019-061A",
        "meta_epoch": "2025-12-11T20:16:59.930112",
        "meta_mean_motion": 1.86229199,
        "meta_eccentricity": 0.00095416,
        "meta_inclination": 54.4002,
        "meta_ra_of_asc_node": 189.0463,
        "meta_arg_of_pericenter": 24.13,
        "meta_mean_anomaly": 335.9744,
        "meta_ephemeris_type": 0,
        "meta_classification_type": "U",
        "meta_norad_cat_id": 44542,
        "meta_element_set_no": 999,
        "meta_rev_at_epoch": 4230,
        "meta_bstar": 0,
        "meta_mean_motion_dot": 7.3e-07,
        "meta_mean_motion_ddot": 0,
        "tle_line1": "1 44542U 19061A   25345.84513808  .00000073  00000+0  00000+0 0  9990",
        "tle_line2": "2 44542  54.4002 189.0463 0009541  24.1300 335.9744  1.86229199 42307"
      },
      "geometry": {
        "type": "Point",
        "coordinates": [
          -8.196513058753572,
          22.348687697655016
        ]
      }
    },
    {
      "type": "Feature",
      "properties": {
        "norad_id": 44543,
        "name": "BEIDOU-3 M23 (C45)",
        "group": "gnss",
        "lat": 47.341305442732605,
        "lon": -120.04668910030276,
        "alt_km": 21509.838427855095,
        "timestamp": "2025-12-15T07:02:37.862069+00:00",
        "meta_object_name": "BEIDOU-3 M23 (C45)",
        "meta_object_id": "2019-061B",
        "meta_epoch": "2025-12-12T05:53:39.748416",
        "meta_mean_motion": 1.86227487,
        "meta_eccentricity": 0.00061471,
        "meta_inclination": 54.3988,
        "meta_ra_of_asc_node": 189.0008,
        "meta_arg_of_pericenter": 23.325,
        "meta_mean_anomaly": 158.0349,
        "meta_ephemeris_type": 0,
        "meta_classification_type": "U",
        "meta_norad_cat_id": 44543,
        "meta_element_set_no": 999,
        "meta_rev_at_epoch": 4231,
        "meta_bstar": 0,
        "meta_mean_motion_dot": 7.9e-07,
        "meta_mean_motion_ddot": 0,
        "tle_line1": "1 44543U 19061B   25346.24559894  .00000079  00000+0  00000+0 0  9997",
        "tle_line2": "2 44543  54.3988 189.0008 0006147  23.3250 158.0349  1.86227487 42313"
      },
      "geometry": {
        "type": "Point",
        "coordinates": [
          -120.04668910030276,
          47.341305442732605
        ]
      }
    }
  ]
}